#dP2022 10  8  0  0  0.00000000      96 __u+U ITR00 FIT  IAC
## 2230 518400.00000000   900.00000000 59860 0.0000000000000
+  118   C06C07C08C09C10C11C12C13C14C16C19C20C21C22C23C24C25
+        C26C27C28C29C30C32C33C34C35C36C37C38C39C40C41C42C43
+        C44C45C46E01E02E03E04E05E07E08E09E10E11E12E13E14E15
+        E18E19E21E24E25E26E27E30E31E33E34E36G01G02G03G04G05
+        G06G07G08G09G10G11G12G13G14G15G16G17G18G19G20G21G22
+        G23G24G25G26G27G28G29G30G31G32J02J03J04R01R02R03R04
+        R05R07R08R09R11R12R13R14R15R17R18R19R20R21R22R24  0
++         7  8  9  6  5  8  8  6  8  7  6  7  7  7  7  7  7
++         8  8  7  8  6  6  6  8  7  7  7  6  9  8  7  7  8
++         6  7  6  7  7  6  7  7  6  6  6  5  6  6  6  5  6
++         6  7  7  6  7  7  7  6  6  6  7  8  6  7  9  6  7
++         6  7  7  6  6  6  6  7  6  7  7  5  6  5  6  6  7
++         8  6  6  7  6  6  6  6  7  6  9  9  8  7  7  7  7
++         8  7  7  7  6  6  7  7  6  7  7  8  8  5  7  7  0
%c M  cc GPS ccc cccc cccc cccc cccc ccccc ccccc ccccc ccccc
%c cc cc ccc ccc cccc cccc cccc cccc ccccc ccccc ccccc ccccc
%f  0.0000000  0.000000000  0.00000000000  0.000000000000000
%f  0.0000000  0.000000000  0.00000000000  0.000000000000000
%i    0    0    0    0      0      0      0      0         0
%i    0    0    0    0      0      0      0      0         0
/* INFORMATION & ANALYSIS CENTER (IAC)      ULTRA-RAPID DATA
/* S/V CLOCKS ARE ALIGNED TO GNSS TIME                      
/* G:C1WC2W R:C1PC2P E:C1XC5X C:C2IC6I J:C1CC2S             
/* PCV:IGS14_2218 OL/AL:FES2004  NONE     YN ORB:CoN CLK:CoN
*  2022 10 08  9 15  0.00000000
PC06  -6656.390200  23763.615823  34204.748490    901.459822
PC07 -17852.523480  35884.508870 -13301.497514   -247.566799
PC08  -2656.075235  37473.668778 -18953.962384    489.805278
PC09   4155.951602  26846.054704  32741.075458   -840.882477
PC10 -11501.410140  36043.450298 -18815.861635     86.610441
PC11 -24655.269094   2458.667107 -12808.117414   -363.719196
PC12 -26017.523568  -9177.366314   4323.279332   -490.173743
PC13   3051.162833  40387.236407 -11056.070184    101.297852
PC14 -22022.071848  13820.862161 -10196.608924    706.620744
PC16 -11323.347247  21570.235404  34583.552445    131.284030
PC19  19302.916440 -20112.020398   1131.997234   -828.542451
PC20  21457.382446  -6841.108079  16466.045931    869.126604
PC21 -10830.096248 -11524.463497 -22985.372141   -558.821433
PC22   5884.077556 -22362.585818 -15617.219409   -862.829071
PC23   2394.289689  26645.154188   7937.933039   -454.793174
PC24 -17570.774374  -5651.692096  20932.264492   -512.091144
PC25  -9854.982256  16325.529019  20361.204955      6.667786
PC26 -14925.944932 -21332.444663  10083.844176    -18.489296
PC27  21141.256129  13590.101723 -12153.582151     32.710279
PC28   3442.218427  16582.587829 -22172.680547     21.880904
PC29  17246.291444 -10359.577597  19332.745898     23.970715
PC30  27483.126231   2249.367404   4333.477969      0.396908
PC32  10836.797156  11554.535135  22979.559110   -768.564653
PC33 -19234.180586  20190.475763  -1223.671189   -858.659614
PC34 -27324.824277  -1482.028513  -5437.835149     12.036808
PC35  -2321.437938 -16411.884833  22439.807186     32.215056
PC36  10563.730420 -15566.329329 -20587.429935   -583.913875
PC37  13862.863704  22478.694055  -8957.996403   -440.695307
PC38  -8234.467972  33285.155121 -24400.846153     29.626254
PC39 -16094.958101  19826.875494  33535.459399     -0.587943
PC40 -25432.718922  31661.193545 -11728.698329     -5.625247
PC41  -6255.936600  22561.560253  15226.198108   -152.493120
PC42 -21190.827202   5795.087004 -17182.321344   -435.530799
PC43 -17961.735445   9996.036293 -18873.268092     18.442128
PC44 -21446.561219 -12958.457154  12247.438276     74.823878
PC45  -2713.516826 -26721.817260  -7615.005640     -7.214607
PC46  17257.284091   3652.513681 -21609.876363     -4.917502
PE01   2387.837026 -28854.412249   6179.812600   -542.754450
PE02  -2265.774187  28814.352503  -6339.782437    329.448807
PE03  -1061.065575  17764.753692  23645.322392   -607.631270
PE04 -19260.264742  -9169.405440 -20521.903366  -1132.109366
PE05 -21203.130349  16101.529773  12932.245178   -136.569248
PE07  28698.945138  -5111.208030   5118.177584   -711.567631
PE08  19290.614989   8963.715961  20573.616331   -611.843351
PE09 -28679.425474   5107.062972  -5291.903566   -685.806195
PE10 -24365.101429 -13675.277733  -9804.111585   -482.205096
PE11 -22728.572322  -4722.070359 -18374.764433   1885.392598
PE12 -21950.483979 -19850.690411   -377.975405   -210.865415
PE13  22983.690499   5479.680319  17828.007721    430.663800
PE14  24046.793347   4892.252676 -10225.394527     21.703699
PE15  21894.897464  19913.708869    139.767237    715.421622
PE18 -29894.425278   6790.241015  -3166.566666   -886.109697
PE19   4124.013238 -18069.039624 -23081.928912  -4322.771546
PE21  13315.905712 -23974.234421 -11138.917833   -762.215204
PE24 -17494.699255   3782.732284  23565.294306   -879.582954
PE25 -13465.336542  23759.172492  11422.844224   -589.653356
PE26   9939.116636 -12828.985049  24757.582236  -1702.751260
PE27  17507.973445  -5050.509847 -23319.092384   -410.360425
PE30  10896.504309  17475.909269 -21257.087834   -899.261469
PE31 -11362.930475 -16674.800751  21671.575138   -505.265336
PE33  -7891.804733 -22513.544108  17527.377669   -454.497283
PE34   8075.852901  22532.286433 -17408.070136     -8.401985
PE36 -10592.815906  12019.905874 -24888.271328   -442.799741
PG01  20705.049769  12082.438317  11487.966249    270.969414
PG02 -21445.823154 -13510.154073  -7037.001418   -643.197050
PG03      0.000000      0.000000      0.000000 999999.999999
PG04  24909.791084   1993.338656   9149.743240   -106.923319
PG05  -8929.748672 -16744.030541 -18706.537512    -99.586908
PG06  -1113.758972 -19278.650004  18261.731754    484.999453
PG07  16860.525434  -2647.084772 -20050.442721    300.771457
PG08  18989.781985   7717.307769 -17122.205910    -87.913302
PG09  25469.508286  -7404.883019  -1864.584852   -286.050088
PG10 -11375.124131  23096.833486  -5666.652826     -6.606444
PG11 -10273.845724 -22719.938711   9203.845979    -23.544503
PG12 -13476.177484  -6523.573877  21675.121010   -289.770282
PG13 -10862.666618 -13278.140699 -20496.552112    402.122895
PG14  13400.422764 -21642.257175  -7369.134559    -97.113774
PG15 -19880.603087  -6326.197486 -17040.659734    -22.651049
PG16   2490.626923  21444.389229 -15434.942180   -525.869232
PG17  18018.633804 -12997.811924  15040.887791    666.717916
PG18 -15520.297483   4155.952917 -21180.153936     22.065904
PG19   7790.550776 -14703.481341  20402.695501    220.998828
PG20  -1638.712075 -25554.474890  -7477.408096    480.101979
PG21  21275.146730  16256.971324   3797.570137    158.352132
PG22  -4331.849597  15630.561258  21424.422246    341.846693
PG23 -15227.804597  15709.909034 -14974.405191     -0.844134
PG24 -21941.183341 -13564.584550   6862.064761    107.767849
PG25 -16440.579188   6669.988793  19386.737396    380.197422
PG26  -2410.706163  25718.381262  -5475.677200    231.657943
PG27   7211.568279  13718.455398 -21826.062776    201.359567
PG28   8858.101870 -25104.667329   2463.168380    331.508045
PG29 -26260.127024   4196.858576   -852.429370   -557.960501
PG30   8385.132754 -13811.902580 -20956.538339   -537.226361
PG31   1347.006561  19984.535190  17058.350812   -196.061604
PG32 -14600.176545  15039.488074  16343.459957   -256.809996
PJ02 -29863.346634  26471.710017  18530.010260     -6.735415
PJ03 -27723.791918  16183.982283 -22746.377836     -2.595143
PJ04 -24505.739741  33886.399621   -744.715713    111.691367
PR01 -20973.264016  13680.716703  -4888.504898     15.928642
PR02 -12408.550244  17388.985786  13921.272323    -22.910069
PR03   3501.371158  10909.219557  22821.552733     65.099851
PR04  16965.965909  -1590.646868  19008.561753    160.403498
PR05  21374.323674 -13112.857943   4762.785984    100.895606
PR07  -4075.197521 -10490.922127 -22863.038688     42.214098
PR08 -17064.931777   1707.405585 -18818.298676    -67.547462
PR09   1217.490501 -23612.214150  -9454.496629     80.891054
PR11 -11224.652023 -10492.770733  20369.594146     25.160441
PR12  -9132.198489  10005.231220  21639.702983     21.845654
PR13  -2012.526634  22968.458400  10901.225234    -27.597787
PR14   6992.748287  23245.006013  -7851.582945     24.219597
PR15  11284.542287   9601.777364 -20740.799615     93.327719
PR17  15297.147086  13915.936319 -14889.554030    567.292524
PR18  23541.943381   9823.317674   1044.940513     46.105653
PR19  20149.869657   1904.148664  15517.023118   -206.494720
PR20   2962.160727 -10009.514908  23282.264443    -79.809507
PR21 -16534.359000 -13885.811448  13613.146482   -339.887530
PR22 -23223.633324 -10400.179488  -1705.464755     14.085636
PR24  -2162.383455  10798.842574 -22988.503218    119.090728
EOF
